{"type":"FeatureCollection","features":[
{"type":"Feature","id":"relation/14186006","properties":{"category":"place","center":[121.4559062,31.26285225],"campus":false,"name":"芷江西路街道"},"geometry":{"type":"Polygon","coordinates":[[[121.4503062,31.2611548],[121.4532781,31.261751],[121.4552522,31.2622554],[121.4556599,31.2623838],[121.4567435,31.2626681],[121.4574945,31.262934],[121.4615062,31.2645497]]]}},
{"type":"Feature","id":"relation/14186010","properties":{"category":"place","center":[121.4559062,31.26285225],"campus":false,"name":"共和新路街道"},"geometry":{"type":"Polygon","coordinates":[[[121.4503062,31.2611548],[121.4532781,31.261751],[121.4552522,31.2622554],[121.4556599,31.2623838],[121.4567435,31.2626681],[121.4574945,31.262934],[121.4615062,31.2645497]]]}},
{"type":"Feature","id":"relation/19628047","properties":{"category":"place","center":[121.4525173,31.263002450000002],"campus":false,"name":"上海滩大宁城","landuse":"residential"},"geometry":{"type":"Polygon","coordinates":[[[121.4518006,31.2632957],[121.4521852,31.2623975],[121.453234,31.2626851],[121.4528368,31.2636074],[121.4518006,31.2632957]]]}},
{"type":"Feature","id":"way/538413905","properties":{"category":"place","center":[121.45448805,31.26362095],"campus":true,"name":"同济大学（沪北校区）","name:en":"Tongji University (Hubei Campus)","amenity":"university"},"geometry":{"type":"Polygon","coordinates":[[[121.4532596,31.2644635],[121.4542049,31.262179],[121.4547517,31.2623429],[121.4549878,31.2624252],[121.4551758,31.2625086],[121.4553405,31.262607],[121.455495,31.2627715],[121.455578,31.2629384],[121.4556611,31.2631153],[121.4557019,31.2633147],[121.4557165,31.2634567],[121.4557077,31.2636087],[121.4556378,31.263798],[121.4551873,31.2650629],[121.454302,31.2647854],[121.4532596,31.2644635]]]}},
{"type":"Feature","id":"way/929086406","properties":{"category":"place","center":[121.45624724999999,31.26526885],"campus":false,"building":"yes"},"geometry":{"type":"Polygon","coordinates":[[[121.4560191,31.2650792],[121.456565,31.2652546],[121.4564753,31.2654585],[121.4559295,31.2652831],[121.4560191,31.2650792]]]}},
{"type":"Feature","id":"way/929086407","properties":{"category":"place","center":[121.45577235,31.26521625],"campus":false,"building":"yes"},"geometry":{"type":"Polygon","coordinates":[[[121.4556251,31.2653744],[121.4557874,31.2650145],[121.4559196,31.265058],[121.4558759,31.265155],[121.4557574,31.265418],[121.4556251,31.2653744]]]}},
{"type":"Feature","id":"way/1431628265","properties":{"category":"place","center":[121.45335545,31.263365999999998],"campus":false,"name":"中山北路805弄小区","landuse":"residential"},"geometry":{"type":"Polygon","coordinates":[[[121.4532596,31.2644635],[121.4531336,31.2647138],[121.452506,31.2645225],[121.4536093,31.2620182],[121.4542049,31.262179],[121.4532596,31.2644635]]]}},
{"type":"Feature","id":"way/1431628266","properties":{"category":"place","center":[121.45268815,31.2655174],"campus":false,"name":"心族公寓","landuse":"residential"},"geometry":{"type":"Polygon","coordinates":[[[121.45254,31.2649183],[121.4533009,31.2651747],[121.4534434,31.2648419],[121.4531336,31.2647138],[121.4532596,31.2644635],[121.454302,31.2647854],[121.453989,31.2654636],[121.4538077,31.2654781],[121.4535422,31.2660795],[121.4533251,31.2665713],[121.4524967,31.266283],[121.4522867,31.2661665],[121.4518497,31.2658171],[121.4515184,31.2654375],[121.4512859,31.2652247],[121.4510743,31.2650634],[121.4511753,31.264834],[121.4522422,31.2652964],[121.4523873,31.2652809],[121.45254,31.2649183]]]}},
{"type":"Feature","id":"way/1433496462","properties":{"category":"place","center":[121.4560478,31.2645548],"campus":false,"building":"yes"},"geometry":{"type":"Polygon","coordinates":[[[121.456022,31.2648353],[121.4558591,31.2647854],[121.4560736,31.2642743],[121.4562365,31.2643242],[121.456022,31.2648353]]]}},
{"type":"Feature","id":"way/1433496463","properties":{"category":"place","center":[121.45649420000001,31.264474749999998],"campus":false,"building":"yes"},"geometry":{"type":"Polygon","coordinates":[[[121.4566701,31.2646001],[121.4562652,31.2644728],[121.4563183,31.2643494],[121.4567232,31.2644767],[121.4566701,31.2646001]]]}},
{"type":"Feature","id":"way/1433496465","properties":{"category":"place","center":[121.45655830000001,31.26475515],"campus":false,"building":"yes"},"geometry":{"type":"Polygon","coordinates":[[[121.4567666,31.2648904],[121.4562968,31.2647594],[121.45635,31.2646199],[121.4568198,31.264751],[121.4567666,31.2648904]]]}},
{"type":"Feature","id":"way/9202234","properties":{"category":"place","center":[121.45486905,31.262001400000003],"campus":false,"highway":"trunk_link"},"geometry":{"type":"LineString","coordinates":[[121.4544903,31.2619368],[121.4552478,31.262066]]}},
{"type":"Feature","id":"way/11947111","properties":{"category":"place","center":[121.4552587,31.262259800000002],"campus":false,"name":"内环高架路","name:en":"Inner Ring Road","highway":"trunk"},"geometry":{"type":"LineString","coordinates":[[121.456396,31.2625683],[121.4553772,31.2622655],[121.4546364,31.2620718],[121.4541214,31.2619513]]}},
{"type":"Feature","id":"way/12111482","properties":{"category":"place","center":[121.45631035,31.263880450000002],"campus":false,"name":"南北高架路","name:en":"North-South Elevated Road","highway":"trunk","source":"estimation"},"geometry":{"type":"LineString","coordinates":[[121.4572281,31.2624119],[121.4570663,31.2625767],[121.4566707,31.262977],[121.4560794,31.2637456],[121.4558994,31.2640459],[121.4557184,31.2644124],[121.4553926,31.265349]]}},
{"type":"Feature","id":"way/23746713","properties":{"category":"place","center":[121.4565593,31.263527099999997],"campus":false,"name":"南北高架路","name:en":"North-South Elevated Road","highway":"trunk","source":"estimation"},"geometry":{"type":"LineString","coordinates":[[121.4551178,31.2656471],[121.4554341,31.2648794],[121.455649,31.2643515],[121.4557604,31.264104],[121.4559691,31.2637132],[121.4562289,31.2633374],[121.4565406,31.2629532],[121.4569786,31.2625205],[121.4574773,31.2620325],[121.4577273,31.2617595],[121.4580008,31.2614071]]}},
{"type":"Feature","id":"way/47096748","properties":{"category":"place","center":[121.45314875,31.26164975],"campus":false,"name":"内环高架路","name:en":"Inner Ring Elevated Road","highway":"trunk"},"geometry":{"type":"LineString","coordinates":[[121.4518072,31.2613627],[121.4533206,31.2616717],[121.4539665,31.2618101],[121.4544903,31.2619368]]}},
{"type":"Feature","id":"way/47096749","properties":{"category":"place","center":[121.4551293,31.2655029],"campus":false,"highway":"trunk_link"},"geometry":{"type":"LineString","coordinates":[[121.4548514,31.2663071],[121.4549731,31.2659328],[121.4551502,31.265378],[121.4554072,31.2646987]]}},
{"type":"Feature","id":"way/160265594","properties":{"category":"place","center":[121.45492235,31.262424799999998],"campus":true,"highway":"trunk_link"},"geometry":{"type":"LineString","coordinates":[[121.4557233,31.2628983],[121.4554857,31.2625485],[121.455349,31.2624328],[121.4551105,31.262295],[121.4541214,31.2619513]]}},
{"type":"Feature","id":"way/160265595","properties":{"category":"place","center":[121.45576885,31.26326685],"campus":false,"highway":"trunk_link"},"geometry":{"type":"LineString","coordinates":[[121.4557801,31.2636354],[121.4558144,31.2633787],[121.4557994,31.2631364],[121.4557233,31.2628983]]}},
{"type":"Feature","id":"way/160265596","properties":{"category":"place","center":[121.45568085,31.26274035],"campus":false,"highway":"trunk_link"},"geometry":{"type":"LineString","coordinates":[[121.455876,31.2629322],[121.4554857,31.2625485]]}},
{"type":"Feature","id":"way/160265600","properties":{"category":"place","center":[121.4558541,31.2644836],"campus":false,"highway":"trunk_link"},"geometry":{"type":"LineString","coordinates":[[121.4563156,31.2636182],[121.4561175,31.2638924],[121.4559239,31.2642046],[121.4557792,31.2645342],[121.4553926,31.265349]]}},
{"type":"Feature","id":"way/160265722","properties":{"category":"place","center":[121.45545955,31.2622163],"campus":false,"name":"内环高架路","name:en":"Inner Ring Elevated Road","highway":"trunk"},"geometry":{"type":"LineString","coordinates":[[121.4544903,31.2619368],[121.4564288,31.2624958]]}},
{"type":"Feature","id":"way/416847045","properties":{"category":"place","center":[121.45450425,31.26589095],"campus":false,"highway":"residential"},"geometry":{"type":"LineString","coordinates":[[121.4549573,31.2657803],[121.4543516,31.2656078],[121.4542685,31.2656307],[121.4540512,31.2661741]]}},
{"type":"Feature","id":"way/441938660","properties":{"category":"place","center":[121.453137,31.2633234],"campus":false,"highway":"service"},"geometry":{"type":"LineString","coordinates":[[121.4536198,31.2619216],[121.4526542,31.2641105],[121.4532789,31.2643038],[121.4532004,31.2644846],[121.4530929,31.2647252]]}},
{"type":"Feature","id":"way/441938661","properties":{"category":"place","center":[121.45375315,31.2646547],"campus":false,"highway":"footway"},"geometry":{"type":"LineString","coordinates":[[121.4532004,31.2644846],[121.4543059,31.2648248]]}},
{"type":"Feature","id":"way/441938663","properties":{"category":"place","center":[121.4549445,31.26502785],"campus":false,"highway":"service"},"geometry":{"type":"LineString","coordinates":[[121.4543059,31.2648248],[121.4552568,31.2651266],[121.4555026,31.265197],[121.4555831,31.2652309]]}},
{"type":"Feature","id":"way/441938664","properties":{"category":"place","center":[121.45428390000001,31.26193345],"campus":false,"name":"大统路","name:en":"Datong Road","highway":"tertiary"},"geometry":{"type":"LineString","coordinates":[[121.454324,31.2618099],[121.4542438,31.262057]]}},
{"type":"Feature","id":"way/513087673","properties":{"category":"place","center":[121.45559365,31.264167049999998],"campus":false,"highway":"trunk_link"},"geometry":{"type":"LineString","coordinates":[[121.4554072,31.2646987],[121.4556763,31.2639386],[121.4557801,31.2636354]]}},
{"type":"Feature","id":"way/1068486056","properties":{"category":"place","center":[121.45527665,31.265170949999998],"campus":false,"name":"共和新路","name:en":"Gonghexin Road","highway":"primary"},"geometry":{"type":"LineString","coordinates":[[121.4544191,31.2670446],[121.4549573,31.2657803],[121.4550658,31.2655156],[121.4552031,31.265285],[121.4552568,31.2651266],[121.4554888,31.2644044],[121.4557731,31.2638977],[121.4561342,31.2632973]]}},
{"type":"Feature","id":"way/1068570752","properties":{"category":"place","center":[121.45574085,31.26471055],"campus":false,"highway":"primary_link"},"geometry":{"type":"LineString","coordinates":[[121.4557224,31.2646332],[121.4557593,31.2647879]]}},
{"type":"Feature","id":"way/1068570753","properties":{"category":"place","center":[121.4561387,31.263868950000003],"campus":false,"highway":"primary_link"},"geometry":{"type":"LineString","coordinates":[[121.4561614,31.2637594],[121.456116,31.2639785]]}},
{"type":"Feature","id":"way/1068570754","properties":{"category":"place","center":[121.45568855,31.2653965],"campus":false,"name":"共和新路","highway":"primary"},"geometry":{"type":"LineString","coordinates":[[121.456883,31.263012],[121.4565289,31.2633352],[121.4561614,31.2637594],[121.4560488,31.2639084],[121.4558959,31.2641881],[121.4557224,31.2646332],[121.4555026,31.265197],[121.455287,31.2657219],[121.4547307,31.2671128],[121.4545387,31.2676248],[121.4544941,31.267781]]}},
{"type":"Feature","id":"way/1119387530","properties":{"category":"place","center":[121.4555345,31.262165099999997],"campus":false,"name":"中山北路","name:en":"North Zhongshan Road","highway":"primary"},"geometry":{"type":"LineString","coordinates":[[121.454324,31.2618099],[121.4548297,31.2619413],[121.4554436,31.2620993],[121.456745,31.2625203]]}},
{"type":"Feature","id":"way/1119387532","properties":{"category":"place","center":[121.45447135,31.26134285],"campus":false,"name":"大统路","name:en":"Datong Road","highway":"tertiary"},"geometry":{"type":"LineString","coordinates":[[121.4546187,31.2608758],[121.454324,31.2618099]]}},
{"type":"Feature","id":"way/1214520053","properties":{"category":"place","center":[121.45497660000001,31.262257499999997],"campus":false,"name":"中山北路","name:en":"North Zhongshan Road","highway":"primary"},"geometry":{"type":"LineString","coordinates":[[121.4557094,31.262458],[121.4553664,31.2623487],[121.4543811,31.262086],[121.4542438,31.262057]]}},
{"type":"Feature","id":"way/1271083322","properties":{"category":"place","center":[121.45613285,31.2625929],"campus":false,"name":"中山北路","name:en":"North Zhongshan Road","highway":"primary"},"geometry":{"type":"LineString","coordinates":[[121.4565563,31.2627278],[121.4557094,31.262458]]}},
{"type":"Feature","id":"way/1271083323","properties":{"category":"place","center":[121.45634525,31.26301255],"campus":false,"name":"共和新路","name:en":"Gonghexin Road","highway":"primary"},"geometry":{"type":"LineString","coordinates":[[121.4561342,31.2632973],[121.4563728,31.2629004],[121.4565563,31.2627278]]}},
{"type":"Feature","id":"way/1271083324","properties":{"category":"place","center":[121.4557832,31.2626347],"campus":false,"highway":"service"},"geometry":{"type":"LineString","coordinates":[[121.455857,31.2628114],[121.4558127,31.2627093],[121.4557564,31.2625374],[121.4557094,31.262458]]}},
{"type":"Feature","id":"way/1271083325","properties":{"category":"place","center":[121.4559956,31.26305435],"campus":false,"highway":"service"},"geometry":{"type":"LineString","coordinates":[[121.4561342,31.2632973],[121.4560112,31.2631839],[121.4559764,31.2631106],[121.455857,31.2628114]]}},
{"type":"Feature","id":"way/1337115416","properties":{"category":"place","center":[121.4529498,31.26170865],"campus":false,"name":"内环高架路","name:en":"Inner Ring Road","highway":"trunk"},"geometry":{"type":"LineString","coordinates":[[121.4541214,31.2619513],[121.4532983,31.2617688],[121.4517782,31.261466]]}},
{"type":"Feature","id":"node/68622585","properties":{"category":"place","center":[121.4544903,31.2619368],"campus":false,"name":"南北高架路","name:en":"North-South Elevated Road","highway":"motorway_junction"},"geometry":{"type":"Point","coordinates":[121.4544903,31.2619368]}},
{"type":"Feature","id":"node/486609159","properties":{"category":"place","center":[121.4557731,31.2638977],"campus":false,"name":"共和新路中山北路"},"geometry":{"type":"Point","coordinates":[121.4557731,31.2638977]}},
{"type":"Feature","id":"node/565170203","properties":{"category":"place","center":[121.4565563,31.2627278],"campus":false,"highway":"traffic_signals"},"geometry":{"type":"Point","coordinates":[121.4565563,31.2627278]}},
{"type":"Feature","id":"node/565170474","properties":{"category":"place","center":[121.454324,31.2618099],"campus":false,"highway":"traffic_signals"},"geometry":{"type":"Point","coordinates":[121.454324,31.2618099]}},
{"type":"Feature","id":"node/3800385656","properties":{"category":"place","center":[121.4545011,31.2614942],"campus":false,"name":"中山北路","name:en":"North Zhongshan Road"},"geometry":{"type":"Point","coordinates":[121.4545011,31.2614942]}},
{"type":"Feature","id":"node/4396267672","properties":{"category":"place","center":[121.4542438,31.262057],"campus":false,"highway":"traffic_signals"},"geometry":{"type":"Point","coordinates":[121.4542438,31.262057]}},
{"type":"Feature","id":"node/4559664491","properties":{"category":"place","center":[121.4544335,31.2614875],"campus":false,"name":"中山北路","name:en":"North Zhongshan Road"},"geometry":{"type":"Point","coordinates":[121.4544335,31.2614875]}},
{"type":"Feature","id":"node/8616659844","properties":{"category":"place","center":[121.4561695,31.265268],"campus":false,"name":"上海樊特姆动画制作","name:en":"Shanghai Phantom Animation","amenity":"studio"},"geometry":{"type":"Point","coordinates":[121.4561695,31.265268]}},
{"type":"Feature","id":"node/9809141645","properties":{"category":"place","center":[121.455743,31.2638786],"campus":false,"name":"共和新路中山北路","highway":"bus_stop"},"geometry":{"type":"Point","coordinates":[121.455743,31.2638786]}},
{"type":"Feature","id":"node/9856097245","properties":{"category":"place","center":[121.4548297,31.2619413],"campus":false,"name":"中山北路共和新路"},"geometry":{"type":"Point","coordinates":[121.4548297,31.2619413]}},
{"type":"Feature","id":"node/9856097246","properties":{"category":"place","center":[121.4548445,31.2619069],"campus":false,"name":"中山北路共和新路","highway":"bus_stop"},"geometry":{"type":"Point","coordinates":[121.4548445,31.2619069]}},
{"type":"Feature","id":"node/11804210994","properties":{"category":"place","center":[121.455857,31.2628114],"campus":false,"name":"中山北路北区汽车站"},"geometry":{"type":"Point","coordinates":[121.455857,31.2628114]}},
{"type":"Feature","id":"node/11804210995","properties":{"category":"place","center":[121.4558047,31.2628182],"campus":false,"name":"中山北路北区汽车站","highway":"bus_stop"},"geometry":{"type":"Point","coordinates":[121.4558047,31.2628182]}},
{"type":"Feature","id":"plan/hubei/1","properties":{"category":"academic","center":[121.45457264983514,31.264685901404064],"campus":true,"name":"科研楼","building":"yes","source":"Tongji official campus plan (May 2025); approximate georeferenced tracing"},"geometry":{"type":"Polygon","coordinates":[[[121.45426678169022,31.264651680673953],[121.45484589305022,31.26484462982382],[121.45487851798006,31.264711077738884],[121.45431805843683,31.26452717298431],[121.45426678169022,31.264651680673953]]]}},
{"type":"Feature","id":"plan/hubei/2","properties":{"category":"living","center":[121.45384047618865,31.264484484037933],"campus":true,"name":"第一宿舍楼","building":"dormitory","source":"Tongji official campus plan (May 2025); approximate georeferenced tracing"},"geometry":{"type":"Polygon","coordinates":[[[121.45348465868962,31.26445254903447],[121.45413237122048,31.264658261309435],[121.45419629368767,31.264519383559012],[121.45354548760469,31.26431070676643],[121.45348465868962,31.26445254903447]]]}},
{"type":"Feature","id":"plan/hubei/3","properties":{"category":"academic","center":[121.4539001970948,31.264602033986],"campus":true,"name":"临教楼","building":"yes","source":"Tongji official campus plan (May 2025); approximate georeferenced tracing"},"geometry":{"type":"Polygon","coordinates":[[[121.4534529086321,31.264501588252042],[121.45431861787601,31.264774933393603],[121.45434748555749,31.264702530000772],[121.45347865259343,31.2644291345784],[121.4534529086321,31.264501588252042]]]}},
{"type":"Feature","id":"plan/hubei/4","properties":{"category":"food","center":[121.45394713386236,31.264134474961537],"campus":true,"name":"圆苑饮食广场","building":"yes","amenity":"food_court","source":"Tongji official campus plan (May 2025); approximate georeferenced tracing"},"geometry":{"type":"Polygon","coordinates":[[[121.45372796059686,31.264188310870907],[121.45403924656175,31.264298251477154],[121.45416630712784,31.264096266133254],[121.45378957388023,31.263970698445917],[121.45372796059686,31.264188310870907]]]}},
{"type":"Feature","id":"plan/hubei/5","properties":{"category":"academic","center":[121.45365379764249,31.263956728581324],"campus":true,"name":"锅炉房","building":"yes","source":"Tongji official campus plan (May 2025); approximate georeferenced tracing"},"geometry":{"type":"Polygon","coordinates":[[[121.45354541085368,31.264016318568245],[121.45368861929161,31.264065259274506],[121.4537621844313,31.263900304235268],[121.45360338756072,31.26384819788814],[121.45354541085368,31.264016318568245]]]}},
{"type":"Feature","id":"plan/hubei/6","properties":{"category":"living","center":[121.4546215570619,31.264478111701802],"campus":true,"name":"第二宿舍楼A楼","building":"dormitory","source":"Tongji official campus plan (May 2025); approximate georeferenced tracing"},"geometry":{"type":"Polygon","coordinates":[[[121.45442159372138,31.26448511869903],[121.45477661176811,31.264595763236652],[121.4548215204024,31.264482811932606],[121.4544634993076,31.26436046016695],[121.45442159372138,31.26448511869903]]]}},
{"type":"Feature","id":"plan/hubei/7","properties":{"category":"living","center":[121.45473160309132,31.26426132891022],"campus":true,"name":"第二宿舍楼B楼","building":"dormitory","source":"Tongji official campus plan (May 2025); approximate georeferenced tracing"},"geometry":{"type":"Polygon","coordinates":[[[121.45450825710182,31.264262080046933],[121.45491307366262,31.264391014498386],[121.45495494908081,31.26426927020311],[121.45455334674419,31.264131643322052],[121.45450825710182,31.264262080046933]]]}},
{"type":"Feature","id":"plan/hubei/8","properties":{"category":"living","center":[121.4549198326281,31.26404411975689],"campus":true,"name":"第三宿舍楼","building":"dormitory","source":"Tongji official campus plan (May 2025); approximate georeferenced tracing"},"geometry":{"type":"Polygon","coordinates":[[[121.45460122825857,31.264033313482845],[121.45516177830582,31.264208475527006],[121.45523843699763,31.264046485005387],[121.45465905412554,31.26387976398677],[121.45460122825857,31.264033313482845]]]}},
{"type":"Feature","id":"plan/hubei/9","properties":{"category":"academic","center":[121.45408501365338,31.263791802783125],"campus":true,"name":"擎禾楼","building":"yes","source":"Tongji official campus plan (May 2025); approximate georeferenced tracing"},"geometry":{"type":"Polygon","coordinates":[[[121.45372593667817,31.263780217156487],[121.45438608375355,31.263991959028314],[121.4544440906286,31.263820924111403],[121.45378100084115,31.263591646537932],[121.45372593667817,31.263780217156487]]]}},
{"type":"Feature","id":"plan/hubei/10","properties":{"category":"academic","center":[121.45416498394991,31.263477091373673],"campus":true,"name":"汇能楼","building":"yes","source":"Tongji official campus plan (May 2025); approximate georeferenced tracing"},"geometry":{"type":"Polygon","coordinates":[[[121.45377580928128,31.263489547688106],[121.45450855611999,31.26362959009848],[121.45455415861855,31.2634496113479],[121.45384937442097,31.26332459264887],[121.45377580928128,31.263489547688106]]]}},
{"type":"Feature","id":"plan/hubei/11","properties":{"category":"academic","center":[121.45397525843464,31.26323023294353],"campus":true,"name":"连学楼","building":"yes","source":"Tongji official campus plan (May 2025); approximate georeferenced tracing"},"geometry":{"type":"Polygon","coordinates":[[[121.45386829774984,31.26330740891291],[121.4539834530426,31.26335006861825],[121.45408221911943,31.263165116167873],[121.45394219473765,31.26311039726881],[121.45386829774984,31.26330740891291]]]}},
{"type":"Feature","id":"plan/hubei/12","properties":{"category":"library","center":[121.45413523873415,31.263028926390596],"campus":true,"name":"图书馆","building":"yes","amenity":"library","source":"Tongji official campus plan (May 2025); approximate georeferenced tracing"},"geometry":{"type":"Polygon","coordinates":[[[121.45393606796942,31.263098639759964],[121.45424104615802,31.263214308278197],[121.4543344094989,31.262947656635635],[121.454023063198,31.262843544503],[121.45393606796942,31.263098639759964]]]}},
{"type":"Feature","id":"plan/hubei/13","properties":{"category":"academic","center":[121.45448963567472,31.262598954860366],"campus":true,"name":"齐贤楼","building":"yes","source":"Tongji official campus plan (May 2025); approximate georeferenced tracing"},"geometry":{"type":"Polygon","coordinates":[[[121.45417265350127,31.262577797915064],[121.45473923981272,31.26277346017849],[121.45480661784816,31.262602576104015],[121.45424297424879,31.262424449542237],[121.45417265350127,31.262577797915064]]]}},
{"type":"Feature","id":"plan/hubei/14","properties":{"category":"academic","center":[121.4544669235985,31.262366569102937],"campus":true,"name":"继续教育学院（网络教育学院）","building":"yes","source":"Tongji official campus plan (May 2025); approximate georeferenced tracing"},"geometry":{"type":"Polygon","coordinates":[[[121.45424366811304,31.262357422095707],[121.45462043152867,31.262480075546236],[121.45469017908397,31.262382097672717],[121.45427911508291,31.26225306265964],[121.45424366811304,31.262357422095707]]]}},
{"type":"Feature","id":"plan/hubei/15","properties":{"category":"sport","center":[121.45521823441189,31.263121013696335],"campus":true,"name":"运动场","leisure":"pitch","sport":"running","source":"Tongji official campus plan (May 2025); approximate georeferenced tracing","map:track":"straight"},"geometry":{"type":"Polygon","coordinates":[[[121.45487080073637,31.26334394871134],[121.45529420877791,31.263487756031697],[121.4555656680874,31.262917925250036],[121.45517683214341,31.262754271360976],[121.45487080073637,31.26334394871134]]]}},
{"type":"Feature","id":"plan/hubei/path-0","properties":{"category":"place","center":[121.45453990578588,31.26346832762348],"campus":true,"name":"","highway":"footway","source":"Tongji official campus plan (May 2025); approximate georeferenced tracing"},"geometry":{"type":"LineString","coordinates":[[121.45419131330388,31.26439688505155],[121.45488849826786,31.262539770195414]]}},
{"type":"Feature","id":"plan/hubei/path-1","properties":{"category":"place","center":[121.45446824389283,31.26405303332436],"campus":true,"name":"","highway":"footway","source":"Tongji official campus plan (May 2025); approximate georeferenced tracing"},"geometry":{"type":"LineString","coordinates":[[121.45365688298712,31.263811167583476],[121.45527960479855,31.26429489906524]]}},
{"type":"Feature","id":"plan/hubei/path-2","properties":{"category":"place","center":[121.4543585188421,31.263485810994],"campus":true,"name":"","highway":"footway","source":"Tongji official campus plan (May 2025); approximate georeferenced tracing"},"geometry":{"type":"LineString","coordinates":[[121.45382438465991,31.263324190402372],[121.45489265302427,31.26364743158563]]}},
{"type":"Feature","id":"plan/hubei/path-3","properties":{"category":"place","center":[121.45455949835653,31.262933791433298],"campus":true,"name":"","highway":"footway","source":"Tongji official campus plan (May 2025); approximate georeferenced tracing"},"geometry":{"type":"LineString","coordinates":[[121.454064395592,31.262774256470227],[121.45505460112105,31.26309332639637]]}},
{"type":"Feature","id":"plan/hubei/path-4","properties":{"category":"place","center":[121.453897731747,31.263331200475076],"campus":true,"name":"","highway":"footway","source":"Tongji official campus plan (May 2025); approximate georeferenced tracing"},"geometry":{"type":"LineString","coordinates":[[121.4535449747485,31.264360248792126],[121.45425048874552,31.262302152158025]]}}
]}
