{
  "type": "FeatureCollection",
  "features": [
    {
      "type": "Feature",
      "id": "way/1361142662",
      "properties": {
        "category": "sport",
        "center": [
          121.38435965,
          31.274703000000002
        ],
        "campus": true,
        "name": "体育馆",
        "leisure": "stadium",
        "sport": "badminton",
        "building": "yes",
        "source": "OSM geometry; indoor classification checked against Tongji official plan"
      },
      "geometry": {
        "type": "Polygon",
        "coordinates": [
          [
            [
              121.3842615,
              31.2750589
            ],
            [
              121.384248,
              31.2749153
            ],
            [
              121.3841805,
              31.27492
            ],
            [
              121.384128,
              31.2743648
            ],
            [
              121.384384,
              31.2743471
            ],
            [
              121.3844209,
              31.2747385
            ],
            [
              121.3845559,
              31.2747292
            ],
            [
              121.3845659,
              31.2748347
            ],
            [
              121.3844545,
              31.2748424
            ],
            [
              121.3844608,
              31.2749088
            ],
            [
              121.3845785,
              31.2749007
            ],
            [
              121.3845913,
              31.2750362
            ],
            [
              121.3842615,
              31.2750589
            ]
          ]
        ]
      }
    }
  ]
}
