{
  "type": "FeatureCollection",
  "features": [
    {
      "type": "Feature",
      "id": "way/442185664",
      "properties": {
        "category": "sport",
        "center": [
          121.2108473,
          31.29203065
        ],
        "campus": true,
        "name": "同济大学嘉定校区游泳馆",
        "leisure": "swimming_pool",
        "building": "yes",
        "source": "OSM geometry; indoor classification checked against Tongji official plan"
      },
      "geometry": {
        "type": "Polygon",
        "coordinates": [
          [
            [
              121.2106508,
              31.2923415
            ],
            [
              121.210651,
              31.2917158
            ],
            [
              121.2110408,
              31.2917159
            ],
            [
              121.2110438,
              31.2923455
            ],
            [
              121.2106508,
              31.2923415
            ]
          ]
        ]
      }
    },
    {
      "type": "Feature",
      "id": "relation/1822753",
      "properties": {
        "category": "sport",
        "center": [
          121.21159515,
          31.290238449999997
        ],
        "campus": true,
        "leisure": "track",
        "name": "嘉定校区田径场",
        "source": "OSM geometry; activity names checked against supplied Tongji sports distribution guide"
      },
      "geometry": {
        "type": "Polygon",
        "coordinates": [
          [
            [
              121.2108079,
              31.2900275
            ],
            [
              121.2108401,
              31.2900091
            ],
            [
              121.210824,
              31.2899358
            ],
            [
              121.2108347,
              31.2898647
            ],
            [
              121.2108481,
              31.2897982
            ],
            [
              121.2108911,
              31.2897249
            ],
            [
              121.2109501,
              31.2896516
            ],
            [
              121.2110547,
              31.2895713
            ],
            [
              121.2111781,
              31.2895117
            ],
            [
              121.2113102,
              31.2894822
            ],
            [
              121.2114731,
              31.2895094
            ],
            [
              121.2115857,
              31.2895645
            ],
            [
              121.2116169,
              31.2895495
            ],
            [
              121.2123824,
              31.2905363
            ],
            [
              121.2123153,
              31.2905798
            ],
            [
              121.2122938,
              31.2906715
            ],
            [
              121.2122322,
              31.2907815
            ],
            [
              121.2121571,
              31.2908526
            ],
            [
              121.212082,
              31.290903
            ],
            [
              121.2119827,
              31.2909466
            ],
            [
              121.2118781,
              31.2909672
            ],
            [
              121.2117923,
              31.2909695
            ],
            [
              121.2116662,
              31.2909489
            ],
            [
              121.211575,
              31.2909947
            ],
            [
              121.21132,
              31.2906732
            ],
            [
              121.2110044,
              31.2902752
            ],
            [
              121.2108079,
              31.2900275
            ]
          ],
          [
            [
              121.210962,
              31.2899938
            ],
            [
              121.2115669,
              31.2908001
            ],
            [
              121.2121526,
              31.2904792
            ],
            [
              121.2115477,
              31.2896729
            ],
            [
              121.210962,
              31.2899938
            ]
          ]
        ]
      }
    },
    {
      "type": "Feature",
      "id": "way/263914853",
      "properties": {
        "category": "sport",
        "center": [
          121.2110332,
          31.28922865
        ],
        "campus": true,
        "leisure": "pitch",
        "sport": "gymnastics",
        "name": "嘉定校区器械活动区",
        "source": "OSM geometry; activity names checked against supplied Tongji sports distribution guide"
      },
      "geometry": {
        "type": "Polygon",
        "coordinates": [
          [
            [
              121.2110091,
              31.2894705
            ],
            [
              121.2106443,
              31.2890098
            ],
            [
              121.2106577,
              31.2889868
            ],
            [
              121.2113363,
              31.2891152
            ],
            [
              121.2114221,
              31.2892229
            ],
            [
              121.2110091,
              31.2894705
            ]
          ]
        ]
      }
    },
    {
      "type": "Feature",
      "id": "way/1456432428",
      "properties": {
        "category": "sport",
        "center": [
          121.2112146,
          31.29206665
        ],
        "campus": true,
        "name": "嘉定同济体育中心",
        "building": "yes",
        "leisure": "sports_hall",
        "sport": "basketball;badminton;table_tennis;fitness;weightlifting;swimming",
        "source": "OSM geometry; activity names checked against supplied Tongji sports distribution guide"
      },
      "geometry": {
        "type": "Polygon",
        "coordinates": [
          [
            [
              121.2109968,
              31.2923855
            ],
            [
              121.2110438,
              31.2923455
            ],
            [
              121.2106508,
              31.2923415
            ],
            [
              121.210651,
              31.2917158
            ],
            [
              121.2110408,
              31.2917159
            ],
            [
              121.211161,
              31.2917321
            ],
            [
              121.21122,
              31.2917401
            ],
            [
              121.2112477,
              31.2915441
            ],
            [
              121.211399,
              31.2915596
            ],
            [
              121.2113282,
              31.2917454
            ],
            [
              121.2113102,
              31.2918445
            ],
            [
              121.2117431,
              31.2918207
            ],
            [
              121.2117784,
              31.2925628
            ],
            [
              121.2110046,
              31.2925892
            ],
            [
              121.2109968,
              31.2923855
            ]
          ]
        ]
      }
    },
    {
      "type": "Feature",
      "id": "way/1456432429",
      "properties": {
        "category": "sport",
        "center": [
          121.21242795,
          31.2921568
        ],
        "campus": true,
        "leisure": "track",
        "name": "嘉定同济体育中心田径场",
        "source": "OSM geometry; activity names checked against supplied Tongji sports distribution guide"
      },
      "geometry": {
        "type": "Polygon",
        "coordinates": [
          [
            [
              121.2117784,
              31.2925628
            ],
            [
              121.2117321,
              31.291609
            ],
            [
              121.2119026,
              31.2915867
            ],
            [
              121.2118997,
              31.2915345
            ],
            [
              121.2118947,
              31.2914169
            ],
            [
              121.2120195,
              31.2913939
            ],
            [
              121.2125577,
              31.2913567
            ],
            [
              121.212719,
              31.291404
            ],
            [
              121.2128367,
              31.2914928
            ],
            [
              121.2129343,
              31.2916506
            ],
            [
              121.2130253,
              31.2919833
            ],
            [
              121.2130798,
              31.292344
            ],
            [
              121.213117,
              31.2927465
            ],
            [
              121.2131238,
              31.292911
            ],
            [
              121.2130347,
              31.2929167
            ],
            [
              121.2130168,
              31.2927727
            ],
            [
              121.2129139,
              31.2927912
            ],
            [
              121.2128429,
              31.2928488
            ],
            [
              121.2126916,
              31.2929386
            ],
            [
              121.2124049,
              31.2929569
            ],
            [
              121.2122355,
              31.2929015
            ],
            [
              121.2121119,
              31.2928143
            ],
            [
              121.2120384,
              31.2928078
            ],
            [
              121.212036,
              31.2928823
            ],
            [
              121.2119673,
              31.2928823
            ],
            [
              121.2119645,
              31.2927479
            ],
            [
              121.2117845,
              31.2927518
            ],
            [
              121.2117784,
              31.2925628
            ]
          ]
        ]
      }
    }
  ]
}
