{
  "type": "FeatureCollection",
  "features": [
    {
      "type": "Feature",
      "id": "plan/lingang/data",
      "properties": {
        "name": "监测与数据中心",
        "source": "Tongji official campus plan (May 2025); approximate georeferenced tracing",
        "building": "yes"
      },
      "geometry": {
        "type": "Polygon",
        "coordinates": [
          [
            [
              121.9199030514154,
              30.865644950255867
            ],
            [
              121.92064100926814,
              30.865932211575014
            ],
            [
              121.92078462062383,
              30.86564534074405
            ],
            [
              121.9204120593778,
              30.865500315612053
            ],
            [
              121.92046496882463,
              30.86539462635854
            ],
            [
              121.92012106613598,
              30.865260757005927
            ],
            [
              121.9199030514154,
              30.865644950255867
            ]
          ]
        ]
      }
    },
    {
      "type": "Feature",
      "id": "plan/lingang/living",
      "properties": {
        "name": "生活配套楼",
        "source": "Tongji official campus plan (May 2025); approximate georeferenced tracing",
        "building": "dormitory"
      },
      "geometry": {
        "type": "Polygon",
        "coordinates": [
          [
            [
              121.92036702699212,
              30.865248256672892
            ],
            [
              121.92075234210462,
              30.865470409333117
            ],
            [
              121.92094743806352,
              30.865798923523677
            ],
            [
              121.92123079752864,
              30.865728818276338
            ],
            [
              121.92109900176469,
              30.865479066818292
            ],
            [
              121.92111089264073,
              30.865267206847534
            ],
            [
              121.92147463855089,
              30.865156230354966
            ],
            [
              121.92067219894403,
              30.86484386853221
            ],
            [
              121.92069313972463,
              30.865041447640323
            ],
            [
              121.92050449598327,
              30.865076259532124
            ],
            [
              121.92036702699212,
              30.865248256672892
            ]
          ]
        ]
      }
    },
    {
      "type": "Feature",
      "id": "plan/lingang/lab",
      "properties": {
        "name": "实验楼",
        "source": "Tongji official campus plan (May 2025); approximate georeferenced tracing",
        "building": "yes"
      },
      "geometry": {
        "type": "Polygon",
        "coordinates": [
          [
            [
              121.92117836593494,
              30.86532053293802
            ],
            [
              121.92188766523029,
              30.865596638477786
            ],
            [
              121.92181585955244,
              30.865740073893267
            ],
            [
              121.92206662192957,
              30.86583768696288
            ],
            [
              121.9221814154435,
              30.865710985216474
            ],
            [
              121.92226739111567,
              30.865744452554626
            ],
            [
              121.92239210624035,
              30.865495327885633
            ],
            [
              121.92155384343677,
              30.86516902133864
            ],
            [
              121.9213946459589,
              30.86517921419056
            ],
            [
              121.92117836593494,
              30.86532053293802
            ]
          ]
        ]
      }
    },
    {
      "type": "Feature",
      "id": "plan/lingang/loop",
      "properties": {
        "name": "",
        "source": "Tongji official campus plan (May 2025); approximate georeferenced tracing",
        "highway": "service"
      },
      "geometry": {
        "type": "LineString",
        "coordinates": [
          [
            121.92031215699578,
            30.86462253347413
          ],
          [
            121.91977967713427,
            30.865669087832018
          ],
          [
            121.92082114752661,
            30.866119597831208
          ],
          [
            121.92108489833889,
            30.866447775883355
          ],
          [
            121.92159673855699,
            30.866502691690357
          ],
          [
            121.92248745038583,
            30.86559558457477
          ],
          [
            121.92246532804606,
            30.865451667695556
          ],
          [
            121.92031215699578,
            30.86462253347413
          ]
        ]
      }
    },
    {
      "type": "Feature",
      "id": "plan/lingang/entry",
      "properties": {
        "name": "",
        "source": "Tongji official campus plan (May 2025); approximate georeferenced tracing",
        "highway": "footway"
      },
      "geometry": {
        "type": "LineString",
        "coordinates": [
          [
            121.92105665106612,
            30.864777033693446
          ],
          [
            121.92101429165177,
            30.864895850069043
          ]
        ]
      }
    }
  ]
}
