{"type":"FeatureCollection","features":[
{"type":"Feature","id":"way/770736971","properties":{"category":"place","center":[121.9236745,30.866467200000002],"campus":false,"landuse":"industrial"},"geometry":{"type":"Polygon","coordinates":[[[121.9228658,30.8668011],[121.9228497,30.8666031],[121.9236973,30.8658778],[121.9244993,30.8661955],[121.9235229,30.8670566],[121.9228658,30.8668011]]]}},
{"type":"Feature","id":"way/1107715622","properties":{"category":"place","center":[121.91873165,30.8648776],"campus":false,"landuse":"construction"},"geometry":{"type":"Polygon","coordinates":[[[121.9178754,30.8659622],[121.9185367,30.863793],[121.9195879,30.8642053],[121.91885,30.8658845],[121.9178754,30.8659622]]]}},
{"type":"Feature","id":"way/1107715623","properties":{"category":"place","center":[121.9208306,30.8655409],"campus":true,"name":"同济大学海洋科学技术研究中心","landuse":"industrial","amenity":"university"},"geometry":{"type":"Polygon","coordinates":[[[121.91885,30.8658845],[121.9195879,30.8642053],[121.9228112,30.8654961],[121.9211334,30.8668765],[121.9202632,30.8661474],[121.9195392,30.8658845],[121.91885,30.8658845]]]}},
{"type":"Feature","id":"way/366420576","properties":{"category":"place","center":[121.92120155,30.86753425],"campus":false,"name":"海基三路","highway":"secondary"},"geometry":{"type":"LineString","coordinates":[[121.9222234,30.8666469],[121.922165,30.8666976],[121.9219431,30.8669047],[121.921522,30.8672661],[121.9213253,30.8674322],[121.9211948,30.8675424],[121.9201797,30.8684216]]}},
{"type":"Feature","id":"way/375094634","properties":{"category":"place","center":[121.9215921,30.8668572],"campus":false,"name":"海基三路","highway":"secondary"},"geometry":{"type":"LineString","coordinates":[[121.9201042,30.8683499],[121.9205601,30.8679582],[121.9207612,30.8677738],[121.9212439,30.8673593],[121.9214414,30.8671898],[121.922495,30.8662763],[121.9225775,30.8662048],[121.9227888,30.8659982],[121.9229597,30.8658341],[121.9230793,30.8656875],[121.92308,30.8655896],[121.923056,30.8654928],[121.9230233,30.8654435],[121.9230256,30.8653645]]}},
{"type":"Feature","id":"way/375094640","properties":{"category":"place","center":[121.9180624,30.86487465],"campus":false,"name":"海基四路","highway":"residential"},"geometry":{"type":"LineString","coordinates":[[121.9176967,30.8661849],[121.9177154,30.8658756],[121.9179918,30.8649145],[121.9182761,30.8639262],[121.9183181,30.8637578],[121.9184281,30.8635644]]}},
{"type":"Feature","id":"way/375094652","properties":{"category":"place","center":[121.9227143,30.8665701],"campus":false,"highway":"service"},"geometry":{"type":"LineString","coordinates":[[121.9229329,30.8667297],[121.9225753,30.8664742],[121.9224957,30.8664105]]}},
{"type":"Feature","id":"way/375094654","properties":{"category":"place","center":[121.92369389999999,30.86463235],"campus":false,"highway":"residential"},"geometry":{"type":"LineString","coordinates":[[121.9234535,30.8655231],[121.9236509,30.8653323],[121.9237617,30.8652055],[121.9238341,30.8650812],[121.9238635,30.8650026],[121.9238977,30.864911],[121.923928,30.864722],[121.9239253,30.864531],[121.9238675,30.863854],[121.9239343,30.8637416]]}},
{"type":"Feature","id":"way/1107715618","properties":{"category":"place","center":[121.9212503,30.864203099999997],"campus":false,"highway":"residential"},"geometry":{"type":"LineString","coordinates":[[121.9263447,30.8659637],[121.9238635,30.8650026],[121.9223397,30.8643872],[121.9194626,30.8632253],[121.9185716,30.8629205],[121.9167894,30.8624485],[121.9165388,30.8624425],[121.9161559,30.862568]]}},
{"type":"Feature","id":"way/1107715620","properties":{"category":"place","center":[121.9223308,30.864393550000003],"campus":false,"highway":"residential"},"geometry":{"type":"LineString","coordinates":[[121.922115,30.8648208],[121.9223397,30.8643872],[121.9225466,30.8639663]]}},
{"type":"Feature","id":"way/1107715624","properties":{"category":"place","center":[121.92209615,30.8663015],"campus":false,"highway":"service"},"geometry":{"type":"LineString","coordinates":[[121.922495,30.8662763],[121.9216973,30.8663267]]}},
{"type":"Feature","id":"way/1107715639","properties":{"category":"place","center":[121.918831,30.863346999999997],"campus":false,"highway":"service"},"geometry":{"type":"LineString","coordinates":[[121.91854,30.8630665],[121.9188519,30.8634214],[121.919122,30.8636275]]}},
{"type":"Feature","id":"way/1216795856","properties":{"category":"place","center":[121.9207308,30.8644216],"campus":false,"name":"海洋七路","highway":"tertiary"},"geometry":{"type":"LineString","coordinates":[[121.920594,30.8643675],[121.9208676,30.8644757]]}},
{"type":"Feature","id":"way/1360363326","properties":{"category":"place","center":[121.92257405,30.86634255],"campus":false,"name":"海基三路","highway":"secondary"},"geometry":{"type":"LineString","coordinates":[[121.9229247,30.8660382],[121.9224957,30.8664105],[121.9222234,30.8666469]]}},
{"type":"Feature","id":"way/1360363327","properties":{"category":"place","center":[121.9231891,30.865780649999998],"campus":false,"name":"海基三路","highway":"secondary"},"geometry":{"type":"LineString","coordinates":[[121.9234535,30.8655231],[121.9233057,30.8657075],[121.9229247,30.8660382]]}},
{"type":"Feature","id":"way/1360363333","properties":{"category":"place","center":[121.92216055,30.864999400000002],"campus":false,"name":"海洋七路","highway":"tertiary"},"geometry":{"type":"LineString","coordinates":[[121.9208676,30.8644757],[121.9230256,30.8653645],[121.9234535,30.8655231]]}},
{"type":"Feature","id":"node/3784836206","properties":{"category":"place","center":[121.9208676,30.8644757],"campus":false,"name":"海洋七路海基四路"},"geometry":{"type":"Point","coordinates":[121.9208676,30.8644757]}},
{"type":"Feature","id":"node/11274572563","properties":{"category":"place","center":[121.920594,30.8643675],"campus":false,"name":"海洋七路海基四路"},"geometry":{"type":"Point","coordinates":[121.920594,30.8643675]}},
{"type":"Feature","id":"node/11274572564","properties":{"category":"place","center":[121.9205618,30.8644596],"campus":false,"name":"海洋七路海基四路","highway":"bus_stop"},"geometry":{"type":"Point","coordinates":[121.9205618,30.8644596]}},
{"type":"Feature","id":"node/11274572565","properties":{"category":"place","center":[121.9208863,30.8644158],"campus":false,"name":"海洋七路海基四路","highway":"bus_stop"},"geometry":{"type":"Point","coordinates":[121.9208863,30.8644158]}},
{"type":"Feature","id":"node/12593204724","properties":{"category":"place","center":[121.9229247,30.8660382],"campus":false,"name":"沪城环路海洋七路"},"geometry":{"type":"Point","coordinates":[121.9229247,30.8660382]}},
{"type":"Feature","id":"node/12593204725","properties":{"category":"place","center":[121.923,30.8660874],"campus":false,"name":"沪城环路海洋七路","highway":"bus_stop"},"geometry":{"type":"Point","coordinates":[121.923,30.8660874]}},
{"type":"Feature","id":"plan/lingang/data","properties":{"category":"academic","center":[121.92034383601961,30.86559648429047],"campus":true,"name":"监测与数据中心","building":"yes","source":"Tongji official campus plan (May 2025); approximate georeferenced tracing"},"geometry":{"type":"Polygon","coordinates":[[[121.9199030514154,30.865644950255867],[121.92064100926814,30.865932211575014],[121.92078462062383,30.86564534074405],[121.9204120593778,30.865500315612053],[121.92046496882463,30.86539462635854],[121.92012106613598,30.865260757005927],[121.9199030514154,30.865644950255867]]]}},
{"type":"Feature","id":"plan/lingang/living","properties":{"category":"living","center":[121.92092083277151,30.865321396027944],"campus":true,"name":"生活配套楼","building":"dormitory","source":"Tongji official campus plan (May 2025); approximate georeferenced tracing"},"geometry":{"type":"Polygon","coordinates":[[[121.92036702699212,30.865248256672892],[121.92075234210462,30.865470409333117],[121.92094743806352,30.865798923523677],[121.92123079752864,30.865728818276338],[121.92109900176469,30.865479066818292],[121.92111089264073,30.865267206847534],[121.92147463855089,30.865156230354966],[121.92067219894403,30.86484386853221],[121.92069313972463,30.865041447640323],[121.92050449598327,30.865076259532124],[121.92036702699212,30.865248256672892]]]}},
{"type":"Feature","id":"plan/lingang/lab","properties":{"category":"academic","center":[121.92178523608764,30.86550335415076],"campus":true,"name":"实验楼","building":"yes","source":"Tongji official campus plan (May 2025); approximate georeferenced tracing"},"geometry":{"type":"Polygon","coordinates":[[[121.92117836593494,30.86532053293802],[121.92188766523029,30.865596638477786],[121.92181585955244,30.865740073893267],[121.92206662192957,30.86583768696288],[121.9221814154435,30.865710985216474],[121.92226739111567,30.865744452554626],[121.92239210624035,30.865495327885633],[121.92155384343677,30.86516902133864],[121.9213946459589,30.86517921419056],[121.92117836593494,30.86532053293802]]]}},
{"type":"Feature","id":"plan/lingang/loop","properties":{"category":"place","center":[121.92113356376005,30.865562612582245],"campus":true,"name":"","highway":"service","source":"Tongji official campus plan (May 2025); approximate georeferenced tracing"},"geometry":{"type":"LineString","coordinates":[[121.92031215699578,30.86462253347413],[121.91977967713427,30.865669087832018],[121.92082114752661,30.866119597831208],[121.92108489833889,30.866447775883355],[121.92159673855699,30.866502691690357],[121.92248745038583,30.86559558457477],[121.92246532804606,30.865451667695556],[121.92031215699578,30.86462253347413]]}},
{"type":"Feature","id":"plan/lingang/entry","properties":{"category":"place","center":[121.92103547135895,30.864836441881245],"campus":true,"name":"","highway":"footway","source":"Tongji official campus plan (May 2025); approximate georeferenced tracing"},"geometry":{"type":"LineString","coordinates":[[121.92105665106612,30.864777033693446],[121.92101429165177,30.864895850069043]]}}
]}
