{"type":"FeatureCollection","features":[
{"type":"Feature","id":"way/380537314","properties":{"category":"sport","center":[121.4946294,31.28172325],"campus":true,"name":"同济大学四平路校区体育馆","name:en":"Tongji Colosseum","leisure":"stadium","sport":"basketball","building":"yes","source":"OSM geometry; indoor classification checked against Tongji official plan"},"geometry":{"type":"Polygon","coordinates":[[[121.4944805,31.2819651],[121.4943223,31.281635],[121.4947836,31.2814814],[121.4949365,31.2818207],[121.4944805,31.2819651]]]}},
{"type":"Feature","id":"relation/18783857","properties":{"category":"sport","center":[121.498621,31.28238065],"campus":true,"name":"129体育馆","building":"university","leisure":"stadium","sport":"badminton;basketball;running"},"geometry":{"type":"Polygon","coordinates":[[[121.498699,31.2829068],[121.498209,31.2819841],[121.4985432,31.2818545],[121.499033,31.2827772],[121.498699,31.2829068]],[[121.4987514,31.2828086],[121.4989061,31.2827492],[121.4988379,31.2826193],[121.4986831,31.2826786],[121.4987514,31.2828086]]]}},
{"type":"Feature","id":"way/176687553","properties":{"category":"sport","center":[121.4993972,31.282106149999997],"campus":true,"name":"129运动场","name:en":"129 Field","leisure":"pitch","map:track":"oval","sport":"running;soccer","source":"OSM geometry; activity names checked against supplied Tongji sports distribution guide"},"geometry":{"type":"Polygon","coordinates":[[[121.4992484,31.2827984],[121.4988621,31.2820191],[121.4986985,31.2816958],[121.498787,31.2816546],[121.4987951,31.2816202],[121.4988138,31.2815721],[121.498838,31.2815262],[121.4988889,31.2814689],[121.4989399,31.2814345],[121.4991089,31.2813658],[121.4991733,31.2813474],[121.4992349,31.2813405],[121.4993691,31.2813451],[121.499471,31.2813726],[121.4995783,31.2814208],[121.4996426,31.2814804],[121.4998518,31.2818838],[121.5000959,31.2824019],[121.5000959,31.2824592],[121.5000879,31.282544],[121.5000664,31.2826059],[121.5000155,31.2826976],[121.4999511,31.2827732],[121.4998787,31.2828122],[121.4998223,31.2828351],[121.4997312,31.2828626],[121.4996051,31.2828718],[121.4994924,31.2828511],[121.4993878,31.2828213],[121.4992832,31.282858],[121.4992484,31.2827984]]]}},
{"type":"Feature","id":"way/379036006","properties":{"category":"sport","center":[121.49356195,31.28186905],"campus":true,"name":"南校区运动场","name:en":"South Campus Field","leisure":"pitch","map:track":"oval","sport":"running;soccer","source":"OSM geometry; activity names checked against supplied Tongji sports distribution guide"},"geometry":{"type":"Polygon","coordinates":[[[121.494103,31.2825604],[121.4939039,31.2826413],[121.4937641,31.2826517],[121.4936133,31.282619],[121.4934172,31.2826634],[121.4932547,31.2823149],[121.4929135,31.2815106],[121.4928248,31.2813103],[121.492828,31.2811409],[121.4928628,31.2810883],[121.4929167,31.2810747],[121.4937493,31.2811166],[121.4941766,31.2820942],[121.4942034,31.282163],[121.4942332,31.2822395],[121.4942587,31.2822968],[121.4942991,31.2823806],[121.4942415,31.2824019],[121.4942767,31.2824822],[121.494103,31.2825604]]]}}
]}
