{"type":"FeatureCollection","features":[
{"type":"Feature","id":"plan/zhangjiang/site","properties":{"category":"place","center":[0.001173915,0.00104348],"campus":true,"name":"张江基地","amenity":"university","source":"Tongji official campus plan, May 2025; local schematic coordinates"},"geometry":{"type":"Polygon","coordinates":[[[0,0.00208696],[0.00234783,0.00208696],[0.00234783,0],[0,0],[0,0.00208696]]]}},
{"type":"Feature","id":"plan/zhangjiang/wenzhi","properties":{"category":"academic","center":[0.000534785,0.00164783],"campus":true,"name":"闻智楼","building":"yes","source":"Tongji official campus plan, May 2025; local schematic coordinates"},"geometry":{"type":"Polygon","coordinates":[[[0.00021739,0.00208696],[0.00088696,0.00208696],[0.00088696,0.00141739],[0.00069565,0.00141739],[0.00069565,0.0012087],[0.00018261,0.0012087],[0.00021739,0.00208696]]]}},
{"type":"Feature","id":"plan/zhangjiang/guangzhi","properties":{"category":"academic","center":[0.001743475,0.00164783],"campus":true,"name":"广智楼","building":"yes","source":"Tongji official campus plan, May 2025; local schematic coordinates"},"geometry":{"type":"Polygon","coordinates":[[[0.00162609,0.00208696],[0.00217391,0.00208696],[0.00217391,0.0012087],[0.00131304,0.0012087],[0.00131304,0.00186087],[0.00162609,0.00186087],[0.00162609,0.00208696]]]}},
{"type":"Feature","id":"plan/zhangjiang/bozhi","properties":{"category":"academic","center":[0.000586955,0.000773915],"campus":true,"name":"博智楼","building":"yes","source":"Tongji official campus plan, May 2025; local schematic coordinates"},"geometry":{"type":"Polygon","coordinates":[[[0.00017391,0.00113913],[0.0008,0.00113913],[0.0008,0.00092174],[0.001,0.00092174],[0.001,0.0004087],[0.00017391,0.0004087],[0.00017391,0.00113913]]]}},
{"type":"Feature","id":"plan/zhangjiang/jianzhi","properties":{"category":"academic","center":[0.001769565,0.000765215],"campus":true,"name":"见智楼","building":"yes","source":"Tongji official campus plan, May 2025; local schematic coordinates"},"geometry":{"type":"Polygon","coordinates":[[[0.00133043,0.00113913],[0.0022087,0.00113913],[0.0022087,0.0003913],[0.00133043,0.0003913],[0.00133043,0.00113913]]]}},
{"type":"Feature","id":"plan/zhangjiang/water","properties":{"category":"water","center":[0.00102174,0.00013913],"campus":true,"name":"","natural":"water","source":"Tongji official campus plan, May 2025; local schematic coordinates"},"geometry":{"type":"Polygon","coordinates":[[[0.00003478,0.00016522],[0.00026087,0.00022609],[0.00053043,0.00027826],[0.00095652,0.00025217],[0.00147826,0.0001913],[0.0020087,0.00001739],[0.00197391,0],[0.00113043,0.00006957],[0.00034783,0.00003478],[0.00003478,0.00016522]]]}},
{"type":"Feature","id":"plan/zhangjiang/path0","properties":{"category":"place","center":[0.0011869600000000001,0.001152175],"campus":true,"name":"","highway":"footway","source":"Tongji official campus plan, May 2025; local schematic coordinates"},"geometry":{"type":"LineString","coordinates":[[0.00008696,0.002],[0.00008696,0.00030435],[0.00228696,0.00030435],[0.00228696,0.002]]}},
{"type":"Feature","id":"plan/zhangjiang/path1","properties":{"category":"place","center":[0.00110435,0.001152175],"campus":true,"name":"","highway":"footway","source":"Tongji official campus plan, May 2025; local schematic coordinates"},"geometry":{"type":"LineString","coordinates":[[0.00110435,0.002],[0.00110435,0.00030435]]}},
{"type":"Feature","id":"plan/zhangjiang/path2","properties":{"category":"place","center":[0.0011869600000000001,0.00117391],"campus":true,"name":"","highway":"footway","source":"Tongji official campus plan, May 2025; local schematic coordinates"},"geometry":{"type":"LineString","coordinates":[[0.00008696,0.00117391],[0.00228696,0.00117391]]}}
]}
